GAOFEN-3                
1 41727U 16049A   25172.80515420  .00000015  00000+0  17841-4 0  9993
2 41727  98.4026 180.9824 0001597 114.1261 246.0096 14.42215964466698
SKYSAT-C4               
1 41771U 16058B   25172.82550581  .00008407  00000+0  23463-3 0  9990
2 41771  96.9554 206.9534 0003642 115.2968 244.8656 15.36956234489927
SKYSAT-C5               
1 41772U 16058C   25172.55429439  .00007188  00000+0  20714-3 0  9999
2 41772  97.1005 222.7095 0003971  19.2956 340.8438 15.36010897488420
SKYSAT-C2               
1 41773U 16058D   25172.34189145  .00005949  00000+0  18904-3 0  9995
2 41773  97.0532 204.6172 0001968 267.1809  92.9209 15.32980375489611
SKYSAT-C3               
1 41774U 16058E   25172.38819636  .00009055  00000+0  24411-3 0  9997
2 41774  96.9526 214.8516 0002664 107.6337 252.5200 15.38013561490411
ALSAT 1B                
1 41785U 16059C   25172.77996142  .00000285  00000+0  53099-4 0  9992
2 41785  97.7878 191.9736 0008198 310.8782  49.1715 14.71844420467553
PATHFINDER 1            
1 41787U 16059E   25172.26030648  .00000458  00000+0  89697-4 0  9993
2 41787  97.8123 183.1341 0027298 277.2143  82.5959 14.66943403466783
SCATSAT 1               
1 41790U 16059H   25172.39200748  .00000830  00000+0  11930-3 0  9999
2 41790  98.1686 226.7082 0055203 330.5245  29.2856 14.78247117 48269
GOKTURK 1A              
1 41875U 16073A   25172.82494309  .00000282  00000+0  64432-4 0  9992
2 41875  98.1131  67.6439 0001378  86.8020 273.3340 14.62824014456142
RESOURCESAT-2A          
1 41877U 16074A   25172.85248471  .00000088  00000+0  60211-4 0  9990
2 41877  98.7038 244.1576 0002783  78.5496 281.5994 14.21608370443115
CARTOSAT-2D             
1 41948U 17008A   25172.55425802  .00003289  00000+0  15923-3 0  9994
2 41948  97.4613 232.4086 0005944  70.7985 289.3892 15.19251155462829
SENTINEL-2B             
1 42063U 17013A   25172.78794367  .00000079  00000+0  46645-4 0  9999
2 42063  98.5696 247.7471 0001132  96.1334 263.9978 14.30812750433112
ZHUHAI-1 02 (CAS-4B)    
1 42759U 17034B   25172.66438117  .00051633  00000+0  50939-3 0  9991
2 42759  43.0062 249.7724 0020307  10.7895 349.3402 15.64866771444492
NUSAT-3 (MILANESAT)     
1 42760U 17034C   25172.52978317  .03549565  90822-5  93141-3 0  9997
2 42760  42.9768 203.2329 0006329  56.2001 303.9489 16.27486557445024
