[
  {
    "OBJECT_NAME": "GAOFEN-3",
    "OBJECT_ID": "2016-049A",
    "EPOCH": "2025-06-21T19:19:25.322880",
    "MEAN_MOTION": 14.42215964,
    "ECCENTRICITY": 0.0001597,
    "INCLINATION": 98.4026,
    "RA_OF_ASC_NODE": 180.9824,
    "ARG_OF_PERICENTER": 114.1261,
    "MEAN_ANOMALY": 246.0096,
    "EPHEMERIS_TYPE": 0,
    "CLASSIFICATION_TYPE": "U",
    "NORAD_CAT_ID": 41727,
    "ELEMENT_SET_NO": 999,
    "REV_AT_EPOCH": 46669,
    "BSTAR": 1.7841e-05,
    "MEAN_MOTION_DOT": 1.5e-07,
    "MEAN_MOTION_DDOT": 0
  },
  {
    "OBJECT_NAME": "SKYSAT-C4",
    "OBJECT_ID": "2016-058B",
    "EPOCH": "2025-06-21T19:48:43.701984",
    "MEAN_MOTION": 15.36956234,
    "ECCENTRICITY": 0.0003642,
    "INCLINATION": 96.9554,
    "RA_OF_ASC_NODE": 206.9534,
    "ARG_OF_PERICENTER": 115.2968,
    "MEAN_ANOMALY": 244.8656,
    "EPHEMERIS_TYPE": 0,
    "CLASSIFICATION_TYPE": "U",
    "NORAD_CAT_ID": 41771,
    "ELEMENT_SET_NO": 999,
    "REV_AT_EPOCH": 48992,
    "BSTAR": 0.00023463,
    "MEAN_MOTION_DOT": 8.407e-05,
    "MEAN_MOTION_DDOT": 0
  },
  {
    "OBJECT_NAME": "SKYSAT-C5",
    "OBJECT_ID": "2016-058C",
    "EPOCH": "2025-06-21T13:18:11.035296",
    "MEAN_MOTION": 15.36010897,
    "ECCENTRICITY": 0.0003971,
    "INCLINATION": 97.1005,
    "RA_OF_ASC_NODE": 222.7095,
    "ARG_OF_PERICENTER": 19.2956,
    "MEAN_ANOMALY": 340.8438,
    "EPHEMERIS_TYPE": 0,
    "CLASSIFICATION_TYPE": "U",
    "NORAD_CAT_ID": 41772,
    "ELEMENT_SET_NO": 999,
    "REV_AT_EPOCH": 48842,
    "BSTAR": 0.00020714,
    "MEAN_MOTION_DOT": 7.188e-05,
    "MEAN_MOTION_DDOT": 0
  },
  {
    "OBJECT_NAME": "SKYSAT-C2",
    "OBJECT_ID": "2016-058D",
    "EPOCH": "2025-06-21T08:12:19.421280",
    "MEAN_MOTION": 15.32980375,
    "ECCENTRICITY": 0.0001968,
    "INCLINATION": 97.0532,
    "RA_OF_ASC_NODE": 204.6172,
    "ARG_OF_PERICENTER": 267.1809,
    "MEAN_ANOMALY": 92.9209,
    "EPHEMERIS_TYPE": 0,
    "CLASSIFICATION_TYPE": "U",
    "NORAD_CAT_ID": 41773,
    "ELEMENT_SET_NO": 999,
    "REV_AT_EPOCH": 48961,
    "BSTAR": 0.00018904,
    "MEAN_MOTION_DOT": 5.949e-05,
    "MEAN_MOTION_DDOT": 0
  },
  {
    "OBJECT_NAME": "SKYSAT-C3",
    "OBJECT_ID": "2016-058E",
    "EPOCH": "2025-06-21T09:19:00.165504",
    "MEAN_MOTION": 15.38013561,
    "ECCENTRICITY": 0.0002664,
    "INCLINATION": 96.9526,
    "RA_OF_ASC_NODE": 214.8516,
    "ARG_OF_PERICENTER": 107.6337,
    "MEAN_ANOMALY": 252.52,
    "EPHEMERIS_TYPE": 0,
    "CLASSIFICATION_TYPE": "U",
    "NORAD_CAT_ID": 41774,
    "ELEMENT_SET_NO": 999,
    "REV_AT_EPOCH": 49041,
    "BSTAR": 0.00024411,
    "MEAN_MOTION_DOT": 9.055e-05,
    "MEAN_MOTION_DDOT": 0
  },
  {
    "OBJECT_NAME": "ALSAT 1B",
    "OBJECT_ID": "2016-059C",
    "EPOCH": "2025-06-21T18:43:08.666688",
    "MEAN_MOTION": 14.7184442,
    "ECCENTRICITY": 0.0008198,
    "INCLINATION": 97.7878,
    "RA_OF_ASC_NODE": 191.9736,
    "ARG_OF_PERICENTER": 310.8782,
    "MEAN_ANOMALY": 49.1715,
    "EPHEMERIS_TYPE": 0,
    "CLASSIFICATION_TYPE": "U",
    "NORAD_CAT_ID": 41785,
    "ELEMENT_SET_NO": 999,
    "REV_AT_EPOCH": 46755,
    "BSTAR": 5.3099e-05,
    "MEAN_MOTION_DOT": 2.85e-06,
    "MEAN_MOTION_DDOT": 0
  },
  {
    "OBJECT_NAME": "PATHFINDER 1",
    "OBJECT_ID": "2016-059E",
    "EPOCH": "2025-06-21T06:14:50.479872",
    "MEAN_MOTION": 14.66943403,
    "ECCENTRICITY": 0.0027298,
    "INCLINATION": 97.8123,
    "RA_OF_ASC_NODE": 183.1341,
    "ARG_OF_PERICENTER": 277.2143,
    "MEAN_ANOMALY": 82.5959,
    "EPHEMERIS_TYPE": 0,
    "CLASSIFICATION_TYPE": "U",
    "NORAD_CAT_ID": 41787,
    "ELEMENT_SET_NO": 999,
    "REV_AT_EPOCH": 46678,
    "BSTAR": 8.9697e-05,
    "MEAN_MOTION_DOT": 4.58e-06,
    "MEAN_MOTION_DDOT": 0
  },
  {
    "OBJECT_NAME": "SCATSAT 1",
    "OBJECT_ID": "2016-059H",
    "EPOCH": "2025-06-21T09:24:29.446272",
    "MEAN_MOTION": 14.78247117,
    "ECCENTRICITY": 0.0055203,
    "INCLINATION": 98.1686,
    "RA_OF_ASC_NODE": 226.7082,
    "ARG_OF_PERICENTER": 330.5245,
    "MEAN_ANOMALY": 29.2856,
    "EPHEMERIS_TYPE": 0,
    "CLASSIFICATION_TYPE": "U",
    "NORAD_CAT_ID": 41790,
    "ELEMENT_SET_NO": 999,
    "REV_AT_EPOCH": 4826,
    "BSTAR": 0.0001193,
    "MEAN_MOTION_DOT": 8.3e-06,
    "MEAN_MOTION_DDOT": 0
  },
  {
    "OBJECT_NAME": "GOKTURK 1A",
    "OBJECT_ID": "2016-073A",
    "EPOCH": "2025-06-21T19:47:55.082976",
    "MEAN_MOTION": 14.62824014,
    "ECCENTRICITY": 0.0001378,
    "INCLINATION": 98.1131,
    "RA_OF_ASC_NODE": 67.6439,
    "ARG_OF_PERICENTER": 86.802,
    "MEAN_ANOMALY": 273.334,
    "EPHEMERIS_TYPE": 0,
    "CLASSIFICATION_TYPE": "U",
    "NORAD_CAT_ID": 41875,
    "ELEMENT_SET_NO": 999,
    "REV_AT_EPOCH": 45614,
    "BSTAR": 6.4432e-05,
    "MEAN_MOTION_DOT": 2.82e-06,
    "MEAN_MOTION_DDOT": 0
  },
  {
    "OBJECT_NAME": "RESOURCESAT-2A",
    "OBJECT_ID": "2016-074A",
    "EPOCH": "2025-06-21T20:27:34.678944",
    "MEAN_MOTION": 14.2160837,
    "ECCENTRICITY": 0.0002783,
    "INCLINATION": 98.7038,
    "RA_OF_ASC_NODE": 244.1576,
    "ARG_OF_PERICENTER": 78.5496,
    "MEAN_ANOMALY": 281.5994,
    "EPHEMERIS_TYPE": 0,
    "CLASSIFICATION_TYPE": "U",
    "NORAD_CAT_ID": 41877,
    "ELEMENT_SET_NO": 999,
    "REV_AT_EPOCH": 44311,
    "BSTAR": 6.0211e-05,
    "MEAN_MOTION_DOT": 8.8e-07,
    "MEAN_MOTION_DDOT": 0
  },
  {
    "OBJECT_NAME": "CARTOSAT-2D",
    "OBJECT_ID": "2017-008A",
    "EPOCH": "2025-06-21T13:18:07.892928",
    "MEAN_MOTION": 15.19251155,
    "ECCENTRICITY": 0.0005944,
    "INCLINATION": 97.4613,
    "RA_OF_ASC_NODE": 232.4086,
    "ARG_OF_PERICENTER": 70.7985,
    "MEAN_ANOMALY": 289.3892,
    "EPHEMERIS_TYPE": 0,
    "CLASSIFICATION_TYPE": "U",
    "NORAD_CAT_ID": 41948,
    "ELEMENT_SET_NO": 999,
    "REV_AT_EPOCH": 46282,
    "BSTAR": 0.00015923,
    "MEAN_MOTION_DOT": 3.289e-05,
    "MEAN_MOTION_DDOT": 0
  },
  {
    "OBJECT_NAME": "SENTINEL-2B",
    "OBJECT_ID": "2017-013A",
    "EPOCH": "2025-06-21T18:54:38.333088",
    "MEAN_MOTION": 14.3081275,
    "ECCENTRICITY": 0.0001132,
    "INCLINATION": 98.5696,
    "RA_OF_ASC_NODE": 247.7471,
    "ARG_OF_PERICENTER": 96.1334,
    "MEAN_ANOMALY": 263.9978,
    "EPHEMERIS_TYPE": 0,
    "CLASSIFICATION_TYPE": "U",
    "NORAD_CAT_ID": 42063,
    "ELEMENT_SET_NO": 999,
    "REV_AT_EPOCH": 43311,
    "BSTAR": 4.6645e-05,
    "MEAN_MOTION_DOT": 7.9e-07,
    "MEAN_MOTION_DDOT": 0
  },
  {
    "OBJECT_NAME": "ZHUHAI-1 02 (CAS-4B)",
    "OBJECT_ID": "2017-034B",
    "EPOCH": "2025-06-21T15:56:42.533088",
    "MEAN_MOTION": 15.64866771,
    "ECCENTRICITY": 0.0020307,
    "INCLINATION": 43.0062,
    "RA_OF_ASC_NODE": 249.7724,
    "ARG_OF_PERICENTER": 10.7895,
    "MEAN_ANOMALY": 349.3402,
    "EPHEMERIS_TYPE": 0,
    "CLASSIFICATION_TYPE": "U",
    "NORAD_CAT_ID": 42759,
    "ELEMENT_SET_NO": 999,
    "REV_AT_EPOCH": 44449,
    "BSTAR": 0.00050939,
    "MEAN_MOTION_DOT": 0.00051633,
    "MEAN_MOTION_DDOT": 0
  },
  {
    "OBJECT_NAME": "NUSAT-3 (MILANESAT)",
    "OBJECT_ID": "2017-034C",
    "EPOCH": "2025-06-21T12:42:53.265888",
    "MEAN_MOTION": 16.27486557,
    "ECCENTRICITY": 0.0006329,
    "INCLINATION": 42.9768,
    "RA_OF_ASC_NODE": 203.2329,
    "ARG_OF_PERICENTER": 56.2001,
    "MEAN_ANOMALY": 303.9489,
    "EPHEMERIS_TYPE": 0,
    "CLASSIFICATION_TYPE": "U",
    "NORAD_CAT_ID": 42760,
    "ELEMENT_SET_NO": 999,
    "REV_AT_EPOCH": 44502,
    "BSTAR": 0.00093141,
    "MEAN_MOTION_DOT": 0.03549565,
    "MEAN_MOTION_DDOT": 9.0822e-06
  }
]